EUTELSAT 8 WEST B       
1 40875U 15039B   25215.40171500 -.00000056  00000+0  00000+0 0  9995
2 40875   0.0654  14.8863 0003605 117.5726 316.3727  1.00271408 36476
EUTELSAT 9B             
1 41310U 16005A   25215.54781830  .00000072  00000+0  00000+0 0  9999
2 41310   0.0407  69.9726 0001405  70.8557  17.7313  1.00273174 34939
EUTELSAT 65 WEST A      
1 41382U 16014A   25215.53299823 -.00000266  00000+0  00000+0 0  9999
2 41382   0.0486   5.1352 0002325 120.1003 313.7967  1.00273439 34353
EUTELSAT 117 WEST B     
1 41589U 16038B   25215.66558547 -.00000002  00000+0  00000+0 0  9997
2 41589   0.0258 103.7223 0000557 142.8272 188.5268  1.00270384 33521
EUTELSAT 172B           
1 42741U 17029B   25214.86632487  .00000004  00000+0  00000+0 0  9997
2 42741   0.0198 154.4518 0000300 271.8644   9.2603  1.00271925 30539
EUTELSAT 7C             
1 44334U 19034B   25215.04775697  .00000058  00000+0  00000+0 0  9996
2 44334   0.0745 190.8423 0003600 287.1834 218.0280  1.00273291  3644
EUTELSAT 5 WEST B       
1 44624U 19067A   25215.33091381 -.00000032  00000+0  00000+0 0  9990
2 44624   0.0989 306.0789 0003177 184.0813 296.1222  1.00271363 21251
EUTELSAT KONNECT        
1 45027U 20005B   25215.61879863  .00000059  00000+0  00000+0 0  9990
2 45027   0.0565  93.8427 0001179  90.9189 357.6343  1.00269155 21130
